C/2017 M4 (ATLAS),h,01/17.8835/2019,105.6239,66.0191,167.5128,1.000710,3.243765,2000,6.0,4.0
# From MPC114599
P/2017 P1 (PANSTARRS),e,7.6877,221.4614,122.8060,7.920426,0.0442162,0.30990043,95.0465,05/11.0/2024,2000,g 10.0,4.0
# From MPEC 2022-OB6
P/2017 S8 (PANSTARRS),e,29.8440,191.5312,254.8743,2.778782,0.2127759,0.39102010,128.4376,05/11.0/2024,2000,g 16.0,4.0
# From MPEC 2024-A43
C/2017 T2 (PANSTARRS),e,57.2922,64.4499,92.8262,1490,0.0000171,0.99892038,0.0000,05/05.2688/2020,2000,g  5.0,4.0
# From MPC115882
P/2017 TW13 (Lemmon),e,44.8691,322.1986,119.9372,7.135423,0.0517100,0.71071208,111.1225,05/11.0/2024,2000,g 15.0,2.0
# From MPEC 2022-K19
P/2017 U3 (PANSTARRS),e,15.9182,165.0820,296.2516,4.921552,0.0902716,0.10043283,167.4011,05/11.0/2024,2000,g 11.0,4.0
# From MPEC 2023-A50
C/2017 U7 (PANSTARRS),h,09/16.0674/2019,142.6325,276.3026,326.4632,1.002627,6.426548,2000,8.3,2.0
# From MPC114601
P/2017 W3 (Gibbs),e,18.1761,210.1365,327.7707,7.823234,0.0450427,0.50652630,102.0673,05/11.0/2024,2000,g 10.5,4.0
# From MPEC 2024-DC6
C/2017 Y2 (PANSTARRS),h,11/05.1150/2020,128.4488,66.0341,147.8953,1.001510,4.628219,2000,15.0,4.0
# From MPC111770
P/2017 Y3 (Leonard),e,27.5965,153.9325,67.4610,9.804631,0.0321039,0.86933666,73.3620,05/11.0/2024,2000,g 16.5,4.0
# From MPEC 2021-P47
C/2018 A3 (ATLAS),e,139.5652,194.3155,86.4118,345.3095,0.0001536,0.99048442,0.0000,01/09.4461/2019,2000,g  8.5,4.0
# From MPC109147
P/2018 A5 (PANSTARRS),e,23.6190,87.7832,359.5095,5.625640,0.0738663,0.52424076,178.6186,05/11.0/2024,2000,g 15.0,4.0
# From MPEC 2024-JC2
C/2018 A6 (Gibbs),e,77.1068,340.4133,264.3117,15.01164,0.0169458,0.79890876,29.9345,05/11.0/2024,2000,g  9.0,4.0
# From MPC114601
P/2018 C1 (Lemmon-Read),e,5.1059,270.2712,235.7241,5.650844,0.0733726,0.53230307,166.4616,05/11.0/2024,2000,g 13.5,4.0
# From MPEC 2022-M88
C/2018 DO4 (Lemmon),e,160.4471,251.3901,176.3424,25.44099,0.0076807,0.90500525,13.2803,05/11.0/2024,2000,g 11.0,4.0
# From MPEC 2021-R75
C/2018 F1 (Grauer),e,46.1168,177.2914,71.5173,224.6730,0.0002927,0.98666498,0.0000,12/10.6345/2018,2000,g 11.5,4.0
# From MPEC 2023-A50
C/2018 F4 (PANSTARRS),e,78.0931,26.5187,263.2070,2367,0.0000086,0.99854404,0.0000,12/01.8140/2019,2000,g 11.0,6.0
# From MPEC 2021-Y10
C/2018 F4-A,e,78.0933,26.5189,263.2038,2284,0.0000090,0.99849108,0.0000,12/01.8021/2019,2000,g 11.0,6.0
# From MPEC 2023-D41
C/2018 F4-B,e,78.0943,26.5184,263.1896,2427,0.0000082,0.99857986,0.0000,12/01.7389/2019,2000,g 11.0,6.0
# From MPC114602
P/2018 H2 (PANSTARRS),e,7.4209,67.9748,119.4720,4.397385,0.1068839,0.54064156,248.6581,05/11.0/2024,2000,g 16.6,2.0
# From MPEC 2021-R75
C/2018 KJ3 (Lemmon),e,136.6356,91.6855,217.5978,813.9630,0.0000424,0.99555139,0.0000,09/09.6500/2019,2000,g 12.2,2.0
# From MPC114602
P/2018 L1 (PANSTARRS),e,10.5787,268.5909,17.9971,3.656036,0.1409900,0.48128987,283.3137,05/11.0/2024,2000,g 15.0,4.0
# From MPEC 2021-P47
C/2018 L2 (ATLAS),e,67.2016,242.9836,56.3495,245.5741,0.0002561,0.99299778,0.0000,11/30.8965/2018,2000,g 10.0,4.0
# From MPC114603
P/2018 L4 (PANSTARRS),e,26.5990,145.2135,140.5624,4.947424,0.0895644,0.65833959,189.2938,05/11.0/2024,2000,g 17.5,4.0
# From MPC119996
P/2018 L5 (Leonard),e,2.2090,219.0576,93.9250,3.629172,0.1425584,0.36383657,313.2527,05/11.0/2024,2000,g 14.5,4.0
# From MPEC 2022-YN2
C/2018 N2 (ASASSN),h,11/11.8545/2019,77.5437,24.4979,25.2772,1.001664,3.132009,2000,6.0,4.0
# From MPC114603
P/2018 P4 (PANSTARRS),e,23.0963,353.1455,8.4825,6.691747,0.0569370,0.44987573,114.4562,05/11.0/2024,2000,g 12.0,4.0
# From MPEC 2021-P47
C/2018 P5 (PANSTARRS),e,7.2458,216.2505,132.0269,12.85280,0.0213898,0.64236191,40.6303,05/11.0/2024,2000,g 11.0,4.0
# From MPC118841
C/2018 R3 (Lemmon),e,69.7091,324.4945,112.7272,1657,0.0000146,0.99922621,0.0000,06/08.0722/2019,2000,g  9.5,4.0
# From MPC114603
C/2018 R5 (Lemmon),e,103.7239,171.2109,178.2517,22.96750,0.0089543,0.84160655,17.4380,05/11.0/2024,2000,g 11.5,4.0
# From MPEC 2022-QC6
C/2018 S2 (TESS),e,64.1183,85.1155,290.8756,14.36965,0.0180940,0.61851335,36.4131,05/11.0/2024,2000,g  7.5,4.0
# From MPEC 2023-N01
C/2018 U1 (Lemmon),h,11/02.7597/2021,108.3251,75.5116,180.4290,1.000996,4.990370,2000,5.0,4.0
# From MPC114604
C/2018 V1 (Machholz-Fujikawa-Iwamoto),h,12/03.2428/2018,144.1578,129.3693,89.4008,1.000417,0.391862,2000,12.0,4.0
# From MPC115884
C/2018 V2 (ATLAS),e,159.1661,357.1353,319.1720,25.17130,0.0078045,0.90101928,15.5585,05/11.0/2024,2000,g 15.0,4.0
# From MPEC 2023-CD7
P/2018 VN2 (Leonard),e,18.2605,226.4410,138.9225,4.061634,0.1204073,0.47845640,260.4769,05/11.0/2024,2000,g 15.0,4.0
# From MPEC 2022-VC5
A/2018 V3,e,164.9366,308.7691,3.6109,128.4710,0.0006769,0.98960264,0.0000,09/10.0226/2019,2000,g 15.7,2.0
# From MPEC 2022-M21
C/2018 V4 (Africano),e,69.0376,78.2547,0.0095,209.4727,0.0003251,0.98473629,0.0000,03/02.1472/2019,2000,g 12.5,4.0
# From MPEC 2021-P47
P/2018 V5 (Trujillo-Sheppard),e,10.5849,171.3194,260.7380,8.971478,0.0366782,0.47595027,74.9927,05/11.0/2024,2000,g 12.5,4.0
# From MPEC 2021-P47
C/2018 W1 (Catalina),e,83.4240,233.6585,251.1963,21.71494,0.0097402,0.93758605,17.7777,05/11.0/2024,2000,g 15.5,2.0
# From MPEC 2021-P47
C/2018 W2 (Africano),h,09/05.3787/2019,116.5943,181.8806,158.1762,1.000823,1.464988,2000,9.5,4.0
# From MPEC 2023-M14
A/2018 W3,e,104.8379,251.6885,313.9315,717.7080,0.0000513,0.99402600,0.0000,04/13.1022/2021,2000,g 10.7,2.0
# From MPC119996
C/2018 X2 (Fitzsimmons),e,23.0872,340.7274,161.9465,139.2298,0.0005999,0.98481315,0.0000,07/08.8994/2019,2000,g 12.0,4.0
# From MPC114604
C/2018 X3 (PANSTARRS),e,43.4207,78.8029,359.7951,12.39336,0.0225902,0.78289145,44.2061,05/11.0/2024,2000,g 14.5,4.0
# From MPEC 2024-A43
C/2018 Y1 (Iwamoto),e,160.4455,147.4095,357.8660,127.0199,0.0006885,0.98986549,0.0000,02/04.5451/2019,2000,g 11.5,4.0
# From MPC114605
P/2018 Y2 (Africano),e,11.6901,297.1495,162.2969,7.454071,0.0484299,0.47983789,94.6687,05/11.0/2024,2000,g 11.5,4.0
# From MPC114605
P/2019 A1 (PANSTARRS),e,13.7615,312.2324,150.7341,5.113931,0.0852259,0.56991085,173.6297,05/11.0/2024,2000,g 16.0,4.0
# From MPEC 2021-P47
P/2019 A2 (ATLAS),e,14.8664,139.3968,323.8835,5.711387,0.0722091,0.38291312,144.1845,05/11.0/2024,2000,g 10.5,4.0
# From MPEC 2022-M21
P/2019 A3 (PANSTARRS),e,15.3742,31.3566,325.6586,3.144616,0.1767472,0.26630459,12.2493,05/11.0/2024,2000,g 16.0,4.0
# From MPEC 2022-L66
P/2019 A4 (PANSTARRS),e,13.3043,119.3622,343.0928,2.614416,0.2331536,0.08732402,101.1808,05/11.0/2024,2000,g 15.0,4.0
# From MPEC 2021-P47
C/2019 A5 (PANSTARRS),e,67.5480,146.5615,355.7750,21.47805,0.0099017,0.70616020,17.8288,05/11.0/2024,2000,g  9.5,4.0
# From MPC114605
P/2019 A6 (Lemmon-PANSTARRS),e,33.2822,280.1870,156.2089,5.356819,0.0794957,0.64036471,165.2990,05/11.0/2024,2000,g 16.0,4.0
# From MPC115884
P/2019 A8 (PANSTARRS),e,2.2107,114.4046,63.8787,4.337866,0.1090913,0.22721920,238.3696,05/11.0/2024,2000,g 16.0,4.0
# From MPC118842
C/2019 A9 (PANSTARRS),e,84.3488,278.4468,237.9013,39.18297,0.0040184,0.96352248,7.0351,05/11.0/2024,2000,g 15.0,4.0
# From MPEC 2022-L66
C/2019 B1 (Africano),e,123.4457,290.2821,174.7794,138.2301,0.0006065,0.98843787,0.0000,03/18.5779/2019,2000,g 16.0,4.0
# From MPC115885
P/2019 B2 (Groeller),e,16.9717,175.7173,0.7836,3.922436,0.1268733,0.35819523,230.5879,05/11.0/2024,2000,g 14.5,4.0
# From MPEC 2024-A43
C/2019 B3 (PANSTARRS),e,66.5595,358.4192,263.9755,5490,0.0000024,0.99875652,0.0000,01/19.9306/2021,2000,g  5.5,4.0
# From MPEC 2021-P47
C/2019 C1 (ATLAS),e,36.0501,212.3902,319.0205,651.3139,0.0000593,0.98991114,0.0000,05/04.0828/2020,2000,g 10.0,4.0
# From MPEC 2022-O08
C/2019 D1 (Flewelling),e,33.9942,231.6451,70.7335,139.8062,0.0005962,0.98862696,0.0000,05/10.1058/2019,2000,g 13.0,4.0
# From MPEC 2024-JC2
C/2019 E3 (ATLAS),e,84.3015,347.2228,280.7066,6135,0.0000021,0.99831897,0.0000,11/15.4114/2023,2000,g  2.5,4.0
# From MPEC 2024-GJ3
C/2019 F1 (ATLAS-Africano),h,06/22.0417/2021,54.2345,38.6639,251.3400,1.001321,3.608175,2000,5.5,4.0
# From MPEC 2021-P47
C/2019 F2 (ATLAS),e,19.3067,175.3889,11.6362,16.57978,0.0145994,0.86463480,24.9305,05/11.0/2024,2000,g 12.0,4.0
# From MPEC 2024-E01
C/2019 G2 (PANSTARRS),e,159.2267,208.1826,82.6593,406.9250,0.0001201,0.99435125,0.0000,12/07.4713/2019,2000,g 15.0,4.0
# From MPEC 2022-VC5
A/2019 G3,e,156.8035,49.9149,161.8326,17.16428,0.0138601,0.83448387,27.5049,05/11.0/2024,2000,g 17.1,2.0
# From MPC114607
P/2019 GG21 (PANSTARRS),e,6.0866,340.5608,208.5859,7.468148,0.0482931,0.47173351,88.2916,05/11.0/2024,2000,g 12.0,4.0
# From MPEC 2022-M21
C/2019 H1 (NEOWISE),e,104.3873,269.3005,19.2961,238.6743,0.0002673,0.99228063,0.0000,04/27.6698/2019,2000,g 15.5,4.0
# From MPEC 2023-A50
C/2019 J1 (Lemmon),e,24.5296,98.2078,167.6665,67.37969,0.0017820,0.96311315,3.3169,05/11.0/2024,2000,g 12.0,4.0
# From MPEC 2021-R75
C/2019 J2 (Palomar),e,105.2526,25.5364,98.6298,160.8773,0.0004830,0.98931397,0.0000,07/20.6370/2019,2000,g 13.0,4.0
# From MPC117071
C/2019 J3 (ATLAS),h,08/02.4433/2019,131.3129,270.6403,16.5594,1.000351,2.366149,2000,13.5,4.0
# From MPEC 2022-M21
C/2019 JU6 (ATLAS),h,06/02.5624/2019,148.3249,21.7508,94.9143,1.000056,2.038423,2000,14.5,4.0
# From MPEC 2022-O08
C/2019 K1 (ATLAS),e,87.0199,73.3126,265.7467,4681,0.0000031,0.99956915,0.0000,02/12.0097/2020,2000,g 10.0,4.0
# From MPC119997
C/2019 K4 (Ye),e,105.2959,180.2017,139.9646,1513,0.0000167,0.99849751,0.0000,06/15.3095/2019,2000,g 12.5,4.0
# From MPEC 2021-P47
C/2019 K5 (Young),e,15.3095,177.2080,175.1483,169.7766,0.0004455,0.98793329,0.0000,06/22.4670/2019,2000,g 13.0,4.0
# From MPEC 2021-P47
C/2019 K6 (PANSTARRS),e,132.3798,43.0013,187.5114,1173,0.0000245,0.99665934,0.0000,05/19.4676/2020,2000,g 11.5,4.0
# From MPEC 2024-GJ3
C/2019 K7 (Smith),h,06/17.5994/2020,103.5075,308.0027,27.4025,1.000902,4.477563,2000,6.0,4.0
# From MPEC 2021-R75
C/2019 K8 (ATLAS),e,93.0910,291.0133,85.3611,2088,0.0000103,0.99846951,0.0000,07/21.2332/2019,2000,g 11.5,4.0
# From MPEC 2023-A50
